SENTINEL-6              
1 46984U 20086A   23292.50855869 -.00000042  00000+0  80387-4 0  9997
2 46984  66.0440 353.2403 0007900 268.0749  91.9361 12.80930351136006
